start=new Date('2022-05-17T00:00:00.000Z').valueOf();
sats=[{"RA_OF_ASC_NODE":"185.8307","SITE":"AFETR","TLE_LINE2":"2 47673  53.0548 185.8307 0001551  46.0558 314.0559 15.06395669 70279","OBJECT_ID":"2021-012BF","REF_FRAME":"TEME","RCS_SIZE":"LARGE","OBJECT_NAME":"STARLINK-2066","ELEMENT_SET_NO":"999","BSTAR":"0.00006872000000","CLASSIFICATION_TYPE":"U","REV_AT_EPOCH":"7027","COUNTRY_CODE":"US","PERIAPSIS":"546.153","OBJECT_TYPE":"PAYLOAD","MEAN_ANOMALY":"314.0559","DECAY_DATE":null,"CENTER_NAME":"EARTH","LAUNCH_DATE":"2021-02-16","GP_ID":"203697302","INCLINATION":"53.0548","NORAD_CAT_ID":"47673","MEAN_MOTION":"15.06395669","ECCENTRICITY":"0.00015510","PERIOD":"95.592","SEMIMAJOR_AXIS":"6925.362","MEAN_MOTION_DDOT":"0.0000000000000","ARG_OF_PERICENTER":"46.0558","MEAN_MOTION_DOT":"0.00000742","TIME_SYSTEM":"UTC","EPOCH":"2022-05-16T12:21:58.771584","FILE":"3448591","MEAN_ELEMENT_THEORY":"SGP4","EPHEMERIS_TYPE":"0","TLE_LINE1":"1 47673U 21012BF  22136.51526356  .00000742  00000-0  68720-4 0  9990","APOAPSIS":"548.301"},{"CENTER_NAME":"EARTH","GP_ID":"203697552","LAUNCH_DATE":"2021-02-16","INCLINATION":"53.0537","NORAD_CAT_ID":"47674","MEAN_ANOMALY":"302.7336","DECAY_DATE":null,"ELEMENT_SET_NO":"999","BSTAR":"0.00011925000000","CLASSIFICATION_TYPE":"U","REV_AT_EPOCH":"7028","COUNTRY_CODE":"US","OBJECT_TYPE":"PAYLOAD","PERIAPSIS":"546.009","RA_OF_ASC_NODE":"185.7446","SITE":"AFETR","TLE_LINE2":"2 47674  53.0537 185.7446 0001729  57.3820 302.7336 15.06402243 70280","REF_FRAME":"TEME","OBJECT_ID":"2021-012BG","RCS_SIZE":"LARGE","OBJECT_NAME":"STARLINK-2067","FILE":"3448591","MEAN_ELEMENT_THEORY":"SGP4","EPHEMERIS_TYPE":"0","TLE_LINE1":"1 47674U 21012BG  22136.53000689  .00001495  00000-0  11925-3 0  9999","APOAPSIS":"548.404","MEAN_MOTION_DDOT":"0.0000000000000","ARG_OF_PERICENTER":"57.3820","MEAN_MOTION_DOT":"0.00001495","EPOCH":"2022-05-16T12:43:12.595296","TIME_SYSTEM":"UTC","MEAN_MOTION":"15.06402243","ECCENTRICITY":"0.00017290","PERIOD":"95.592","SEMIMAJOR_AXIS":"6925.342"},{"INCLINATION":"53.0535","GP_ID":"203703281","LAUNCH_DATE":"2021-02-16","NORAD_CAT_ID":"47675","CENTER_NAME":"EARTH","DECAY_DATE":null,"MEAN_ANOMALY":"310.4819","REV_AT_EPOCH":"6981","PERIAPSIS":"546.003","COUNTRY_CODE":"US","OBJECT_TYPE":"PAYLOAD","ELEMENT_SET_NO":"999","BSTAR":"0.00007269200000","CLASSIFICATION_TYPE":"U","RCS_SIZE":"LARGE","REF_FRAME":"TEME","OBJECT_ID":"2021-012BH","OBJECT_NAME":"STARLINK-2078","TLE_LINE2":"2 47675  53.0535 184.3029 0001735  49.6321 310.4819 15.06402800 69816","SITE":"AFETR","RA_OF_ASC_NODE":"184.3029","APOAPSIS":"548.407","TLE_LINE1":"1 47675U 21012BH  22136.85436575  .00000801  00000-0  72692-4 0  9991","FILE":"3448696","MEAN_ELEMENT_THEORY":"SGP4","EPHEMERIS_TYPE":"0","MEAN_MOTION_DOT":"0.00000801","TIME_SYSTEM":"UTC","EPOCH":"2022-05-16T20:30:17.200800","ARG_OF_PERICENTER":"49.6321","MEAN_MOTION_DDOT":"0.0000000000000","MEAN_MOTION":"15.06402800","SEMIMAJOR_AXIS":"6925.340","ECCENTRICITY":"0.00017350","PERIOD":"95.592"},{"CENTER_NAME":"EARTH","NORAD_CAT_ID":"47676","GP_ID":"203698543","LAUNCH_DATE":"2021-02-16","INCLINATION":"53.0549","DECAY_DATE":null,"MEAN_ANOMALY":"304.2741","CLASSIFICATION_TYPE":"U","BSTAR":"-0.00383660000000","ELEMENT_SET_NO":"999","OBJECT_TYPE":"PAYLOAD","COUNTRY_CODE":"US","PERIAPSIS":"545.955","REV_AT_EPOCH":"130","SITE":"AFETR","TLE_LINE2":"2 47676  53.0549  75.5300 0001750  50.2693 304.2741 15.06415237  1305","RA_OF_ASC_NODE":"75.5300","OBJECT_NAME":"STARLINK-2083","RCS_SIZE":"LARGE","REF_FRAME":"TEME","OBJECT_ID":"2021-012BJ","EPHEMERIS_TYPE":"0","FILE":"3448591","MEAN_ELEMENT_THEORY":"SGP4","APOAPSIS":"548.379","TLE_LINE1":"1 47676U 21012BJ  22136.58334491 -.00056996  00000-0 -38366-2 0  9992","MEAN_MOTION_DDOT":"0.0000000000000","ARG_OF_PERICENTER":"50.2693","TIME_SYSTEM":"UTC","EPOCH":"2022-05-16T14:00:01.000224","MEAN_MOTION_DOT":"-0.00056996","SEMIMAJOR_AXIS":"6925.302","ECCENTRICITY":"0.00017500","PERIOD":"95.591","MEAN_MOTION":"15.06415237"},{"EPOCH":"2022-05-16T17:00:38.069280","TIME_SYSTEM":"UTC","MEAN_MOTION_DOT":"0.00002690","MEAN_MOTION_DDOT":"0.0000000000000","ARG_OF_PERICENTER":"54.2027","SEMIMAJOR_AXIS":"6925.343","PERIOD":"95.592","ECCENTRICITY":"0.00017990","MEAN_MOTION":"15.06401689","APOAPSIS":"548.454","TLE_LINE1":"1 47677U 21012BK  22136.70877395  .00002690  00000-0  19940-3 0  9990","FILE":"3448696","EPHEMERIS_TYPE":"0","MEAN_ELEMENT_THEORY":"SGP4","COUNTRY_CODE":"US","PERIAPSIS":"545.963","OBJECT_TYPE":"PAYLOAD","REV_AT_EPOCH":"6951","CLASSIFICATION_TYPE":"U","BSTAR":"0.00019940000000","ELEMENT_SET_NO":"999","OBJECT_NAME":"STARLINK-2090","RCS_SIZE":"LARGE","OBJECT_ID":"2021-012BK","REF_FRAME":"TEME","SITE":"AFETR","TLE_LINE2":"2 47677  53.0531 204.9659 0001799  54.2027 305.9129 15.06401689 69511","RA_OF_ASC_NODE":"204.9659","NORAD_CAT_ID":"47677","LAUNCH_DATE":"2021-02-16","GP_ID":"203702783","INCLINATION":"53.0531","CENTER_NAME":"EARTH","DECAY_DATE":null,"MEAN_ANOMALY":"305.9129"},{"MEAN_MOTION":"15.06394264","SEMIMAJOR_AXIS":"6925.366","ECCENTRICITY":"0.00015010","PERIOD":"95.593","ARG_OF_PERICENTER":"67.5708","MEAN_MOTION_DDOT":"0.0000000000000","MEAN_MOTION_DOT":"-0.00000302","EPOCH":"2022-05-16T14:30:39.779712","TIME_SYSTEM":"UTC","MEAN_ELEMENT_THEORY":"SGP4","FILE":"3448698","EPHEMERIS_TYPE":"0","APOAPSIS":"548.271","TLE_LINE1":"1 47679U 21012BM  22136.60462708 -.00000302  00000-0 -13544-5 0  9995","SITE":"AFETR","TLE_LINE2":"2 47679  53.0552 205.4343 0001501  67.5708 292.5439 15.06394264 69500","RA_OF_ASC_NODE":"205.4343","RCS_SIZE":"LARGE","REF_FRAME":"TEME","OBJECT_ID":"2021-012BM","OBJECT_NAME":"STARLINK-2095","ELEMENT_SET_NO":"999","BSTAR":"-0.00000135440000","CLASSIFICATION_TYPE":"U","REV_AT_EPOCH":"6950","COUNTRY_CODE":"US","PERIAPSIS":"546.192","OBJECT_TYPE":"PAYLOAD","DECAY_DATE":null,"MEAN_ANOMALY":"292.5439","CENTER_NAME":"EARTH","GP_ID":"203702818","INCLINATION":"53.0552","LAUNCH_DATE":"2021-02-16","NORAD_CAT_ID":"47679"},{"APOAPSIS":"548.270","TLE_LINE1":"1 47722U 21017A   22135.82827258 -.00000098  00000-0  12337-4 0  9996","EPHEMERIS_TYPE":"0","FILE":"3447521","MEAN_ELEMENT_THEORY":"SGP4","SEMIMAJOR_AXIS":"6925.369","PERIOD":"95.593","ECCENTRICITY":"0.00014960","MEAN_MOTION":"15.06393221","EPOCH":"2022-05-15T19:52:42.750912","TIME_SYSTEM":"UTC","MEAN_MOTION_DOT":"-0.00000098","MEAN_MOTION_DDOT":"0.0000000000000","ARG_OF_PERICENTER":"67.9253","DECAY_DATE":null,"MEAN_ANOMALY":"292.1894","NORAD_CAT_ID":"47722","INCLINATION":"53.0554","GP_ID":"203649172","LAUNCH_DATE":"2021-03-04","CENTER_NAME":"EARTH","OBJECT_NAME":"STARLINK-2068","RCS_SIZE":"LARGE","REF_FRAME":"TEME","OBJECT_ID":"2021-017A","SITE":"AFETR","TLE_LINE2":"2 47722  53.0554 333.9191 0001496  67.9253 292.1894 15.06393221 67906","RA_OF_ASC_NODE":"333.9191","COUNTRY_CODE":"US","OBJECT_TYPE":"PAYLOAD","PERIAPSIS":"546.198","REV_AT_EPOCH":"6790","CLASSIFICATION_TYPE":"U","BSTAR":"0.00001233700000","ELEMENT_SET_NO":"999"},{"CENTER_NAME":"EARTH","NORAD_CAT_ID":"47723","LAUNCH_DATE":"2021-03-04","GP_ID":"203705415","INCLINATION":"53.0545","MEAN_ANOMALY":"289.8174","DECAY_DATE":null,"CLASSIFICATION_TYPE":"U","ELEMENT_SET_NO":"999","BSTAR":"0.00000896210000","COUNTRY_CODE":"US","OBJECT_TYPE":"PAYLOAD","PERIAPSIS":"546.255","REV_AT_EPOCH":"6826","RA_OF_ASC_NODE":"264.9057","TLE_LINE2":"2 47723  53.0545 264.9057 0001438  70.2970 289.8174 15.06387906 68267","SITE":"AFETR","OBJECT_NAME":"STARLINK-2107","OBJECT_ID":"2021-017B","REF_FRAME":"TEME","RCS_SIZE":"LARGE","EPHEMERIS_TYPE":"0","FILE":"3448772","MEAN_ELEMENT_THEORY":"SGP4","TLE_LINE1":"1 47723U 21017B   22136.72167423 -.00000148  00000-0  89621-5 0  9995","APOAPSIS":"548.246","MEAN_MOTION_DDOT":"0.0000000000000","ARG_OF_PERICENTER":"70.2970","EPOCH":"2022-05-16T17:19:12.653472","TIME_SYSTEM":"UTC","MEAN_MOTION_DOT":"-0.00000148","PERIOD":"95.593","ECCENTRICITY":"0.00014380","SEMIMAJOR_AXIS":"6925.386","MEAN_MOTION":"15.06387906"},{"APOAPSIS":"548.272","TLE_LINE1":"1 47724U 21017C   22136.49314482  .00001566  00000-0  12399-3 0  9999","MEAN_ELEMENT_THEORY":"SGP4","FILE":"3448591","EPHEMERIS_TYPE":"0","SEMIMAJOR_AXIS":"6925.354","PERIOD":"95.592","ECCENTRICITY":"0.00015210","MEAN_MOTION":"15.06398315","TIME_SYSTEM":"UTC","EPOCH":"2022-05-16T11:50:07.712448","MEAN_MOTION_DOT":"0.00001566","MEAN_MOTION_DDOT":"0.0000000000000","ARG_OF_PERICENTER":"85.2850","DECAY_DATE":null,"MEAN_ANOMALY":"274.8312","NORAD_CAT_ID":"47724","LAUNCH_DATE":"2021-03-04","GP_ID":"203696808","INCLINATION":"53.0559","CENTER_NAME":"EARTH","OBJECT_NAME":"STARLINK-2116","RCS_SIZE":"LARGE","OBJECT_ID":"2021-017C","REF_FRAME":"TEME","TLE_LINE2":"2 47724  53.0559 265.9280 0001521  85.2850 274.8312 15.06398315 68846","SITE":"AFETR","RA_OF_ASC_NODE":"265.9280","PERIAPSIS":"546.165","COUNTRY_CODE":"US","OBJECT_TYPE":"PAYLOAD","REV_AT_EPOCH":"6884","CLASSIFICATION_TYPE":"U","BSTAR":"0.00012399000000","ELEMENT_SET_NO":"999"},{"MEAN_ANOMALY":"293.3498","DECAY_DATE":null,"CENTER_NAME":"EARTH","INCLINATION":"53.0560","GP_ID":"203697058","LAUNCH_DATE":"2021-03-04","NORAD_CAT_ID":"47725","RA_OF_ASC_NODE":"335.7780","SITE":"AFETR","TLE_LINE2":"2 47725  53.0560 335.7780 0001457  66.7644 293.3498 15.06393319 67886","OBJECT_ID":"2021-017D","REF_FRAME":"TEME","RCS_SIZE":"LARGE","OBJECT_NAME":"STARLINK-2125","ELEMENT_SET_NO":"999","BSTAR":"0.00006532200000","CLASSIFICATION_TYPE":"U","REV_AT_EPOCH":"6788","COUNTRY_CODE":"US","OBJECT_TYPE":"PAYLOAD","PERIAPSIS":"546.225","FILE":"3448591","EPHEMERIS_TYPE":"0","MEAN_ELEMENT_THEORY":"SGP4","TLE_LINE1":"1 47725U 21017D   22136.52724454  .00000691  00000-0  65322-4 0  9991","APOAPSIS":"548.243","MEAN_MOTION":"15.06393319","ECCENTRICITY":"0.00014570","PERIOD":"95.593","SEMIMAJOR_AXIS":"6925.369","MEAN_MOTION_DDOT":"0.0000000000000","ARG_OF_PERICENTER":"66.7644","MEAN_MOTION_DOT":"0.00000691","TIME_SYSTEM":"UTC","EPOCH":"2022-05-16T12:39:13.928256"}];
